Facility ID,Facility Name,Address Line 1,City,Zip Code,County,Telephone,Adm First,Adm Last,OWNER,"Certified
Beds",SNF,NF,NH,ICF,ALZ,PC,ICF/IID,Licensure Effective,Licensure Expiration,Region,,,,
100295,AUBURN HEALTH CARE,139 PEARL ST.,AUBURN,42206,LOGAN,(270) 542-4111,DESIRAE,COCANOUGHER,"BOLSTER HEALTH CARE GROUP, LLC",66,,66,,,,,,3/1/19,2/28/20,WB,WB,,,
100763,BAPTIST HEALTH LA GRANGE,1025 NEW MOODY LANE,LA GRANGE,40031,OLDHAM,(502) 222-5388,STEFANIE,ZOELLER,"BAPTIST HEALTHCARE SYSTEM, INC",30,,30,,,,,,1/1/19,12/31/19,NB,NB,,,
100728,BAPTIST HEALTH MADISONVILLE,900 HOSPITAL DRIVE,MADISONVILLE,42431,HOPKINS,(270)825-5201,ROBERT,RAMEY,"BAPTIST HEALTH MADISONVILLE, INC.",0,,20,,,,,,8/1/19,7/31/20,WB,WB,,,
100766,BAPTIST HEALTH PADUCAH,2501 KENTUCKY AVENUE,PADUCAH,42003,MCCRACKEN,(270) 575-2100,CHRIS,ROTY,"BAPTIST HEALTHCARE SYSTEMS, INC.",0,,24,,,,,,1/1/19,12/31/19,WB,WB,,,
100275,BARBOURVILLE HEALTH AND REHABILITATION CENTER,65 MINTON HICKORY FARM ROAD,BARBOURVILLE,40906,KNOX,(606) 546-5136,BOBBIE,MILLS,"BARBOURVILLE NH, INC.",135,,135,,,,,,7/1/19,6/30/20,SB,SB,,,
100509,BARREN COUNTY NURSING AND REHABILITATION ,300 WESTWOOD STREET,GLASGOW,42141,BARREN,(270) 651-9131,JASON,GUMM,"WESTWOOD NURSING AND REHABILITATION, LLC",94,,94,,,,,,1/1/19,12/31/19,WB,WB,,,
100353,"BEAVER DAM NURSING AND REHAB CENTER, INC",1595 US HWY 231 S.,BEAVER DAM,42320,OHIO,(270) 274-9646,LAURA,COLE,"BEAVER DAM NURSING AND REHAB CENTER, INC",58,,58,,,,23,,6/1/19,5/31/20,WB,WB,,,
100637,BEDROCK HC AT GREEN MEADOWS LLC,310 BOXWOOD RUN ROAD,MOUNT WASHINGTON,40047,BULLITT,(502) 955-7600,SHERRIE,WATHEN,BEDROCK HC AT GREEN MEADOWS LLC,122,,122,,,,,,5/1/19,4/30/20,NB,NB,,,
100319,BEREA HEALTH AND REHABILITATION ,601 RICHMOND ROAD,BEREA,40403,MADISON,(859) 986-4710,PAMELA,BROOKS,"BEREA HEALTH CARE, LLC",84,,84,,,,,,1/1/19,12/31/19,SB,SB,,,
100198,BINGHAM GARDENS,4401 LOUISE UNDERWOOD WAY,LOUISVILLE,40216,JEFFERSON,(502) 449-8668,MICHELE,PHELPS,COMMONWEALTH OF KENTUCKY,24,,,,,,,24,9/1/19,8/31/20,NB,NB,,,
100492,BLUEGRASS CARE AND REHABILITATION CENTER,3576 PIMLICO PARKWAY,LEXINGTON,40517,FAYETTE,(859) 272-0608,SHANNON,SPICER,"LP LEXINGTON PIMLICO, LLC",124,,124,,,,,,11/1/19,10/31/20,EB,EB,,,
101289,"BOONESPRING TRANSITIONAL CARE CENTER, LLC",10250 US HIGHWAY 42,UNION,41091,BOONE,(859) 384-1200,JO,LEWTON,"BOONESPRING TRANSITIONAL CARE CENTER, LLC",143,,143,,,,,,2/7/19,1/31/20,EB,EB,,,
100024,BOURBON HEIGHTS NURSING HOME,2000 SOUTH MAIN STREET,PARIS,40361,BOURBON,(859) 987-5750,CHARLOTTE,RAY,"BOURBON HEIGHTS, INC",99,,67,32,,,10,,10/1/19,9/30/20,EB,EB,,,
100409,BOWLING GREEN NURSING AND REHABILITATION CENTER,1561 NEWTON AVE.,BOWLING GREEN ,42104,WARREN,(270) 842-1611,TRACIE,BRANHAM,"BOWLING GREEN HEALTH CENTER, LLC",66,,66,,,,,,1/1/19,12/31/19,WB,WB,,,
100689,BOYD NURSING AND REHABILITATION,12100 PRINCELAND DRIVE,ASHLAND,41102,BOYD,(606) 928-2963,CINDY,SALYERS,"BOYD NURSING AND REHABILITATION, LLC",60,,60,,,,,,10/1/19,9/30/20,EB,EB,,,
100039,BRACKEN COUNTY NURSING AND REHABILITATION CENTER,5269 ASBURY ROAD,AUGUSTA,41002,BRACKEN,(606) 756-2156,AMY,MCKIBBEN,"LP AUGUSTA, LLC",32,,32,,,,,,5/1/19,4/30/20,EB,EB,,,
100070,BRADFORD HEIGHTS HEALTH AND REHAB CENTER,950 HIGHPOINT DRIVE,HOPKINSVILLE,42240,CHRISTIAN,(270) 885-1151,LORI DENISE,HENRICY,"BRADFORD HEIGHTS OPCO, LLC",100,,100,,,,,,2/1/19,1/31/20,WB,WB,,,
100542,BRADFORD SQUARE GENESIS HEALTHCARE,1040 US 127 SOUTH,FRANKFORT,40601,FRANKLIN,(502) 875-5600,JANIE,CUNNINGHAM,GENESIS HEALTHCARE,100,,100,,,,,,10/1/19,9/30/20,EB,EB,,,
100334,BRANDENBURG NURSING AND REHABILITATION CENTER,814 OLD EKRON RD,BRANDENBURG,40108,MEADE,(270) 422-2148,ANGELA,DECKER,"BRANDENBURG OPCO, LLC",57,,57,,,,,,8/1/19,7/31/20,NB,NB,,,
100738,BRECKINRIDGE MEMORIAL NURSING FACILITY,1011 OLD HIGHWAY 60,HARDINSBURG,40143,BRECKINRIDGE,(270) 756-7000,ANGELA,PORTMAN,"BRECKINRIDGE MEMORIAL HOSPITAL, INC.",18,,18,,,,,,7/1/19,6/30/20,NB,NB,,,
101101,BRECKINRIDGE PLACE,170 SYKES BOULEVARD,MORGANFIELD,42437,UNION,(270) 389-1133,KATHY,POGUE,"BRECKINRIDGE SERVICES, INC.",22,,16,8,,,,,6/1/19,5/31/20,WB,WB,,,
100022,BRIDGE POINT CENTER,7300 WOODSPOINT DRIVE,FLORENCE,41042,BOONE,(859) 371-5731,AMBER,REILLY,"WOODSPOINT, LLC",151,,151,,,,,,3/1/19,2/28/20,EB,EB,,,
100183,"BRIGHTON CORNERSTONE GROUP, LLC",55 EAST NORTH STREET,MADISONVILLE,42431,HOPKINS,(270) 821-1492,CYNTHIA,COX,"BRIGHTON CORNERSTONE GROUP, LLC",66,,66,,,,,,8/1/19,7/31/20,WB,WB,,,
100572,BROOKDALE RICHMOND PLACE SNF,2770 PALUMBO DRIVE,LEXINGTON,40509,FAYETTE,(859) 263-2410,BECKY,STOCKER,"BLC LEXINGTON SNF, LLC",120,,120,,,,,,3/1/19,2/29/20,EB,EB,,,
100006,CAL TURNER REHAB AND SPECIALTY CARE,456 BURNLEY RD.,SCOTTSVILLE,42164,ALLEN,(270) 622-2800,JACQUELINE,WOODWARD,BOWLING GREEN WARREN CO. COMM. HOSP. CORP.,110,,110,,,,,,3/1/19,2/29/20,WB,WB,,,
100329,CALVERT CITY CONVALESCENT CENTER,1201 FIFTH AVE,CALVERT CITY,42029,MARSHALL,(270) 395-4124,JENNIFER,LINDSEY,"CALVERT CITY CONVALESCENT CENTER, INC.",95,,95,,,,,,11/1/19,10/31/20,WB,WB,,,
100461,CAMBRIDGE PLACE,2020 CAMBRIDGE DRIVE,LEXINGTON,40504,FAYETTE,(859) 252-6747,CARA,CLARK,"CAMBRIDGE PLACE GROUP, LLC",118,,108,,,,,,12/1/18,11/30/19,EB,EB,,,
100392,CAMPBELLSVILLE NURSING AND REHABILITATION CENTER,1980 OLD GREENSBURG ROAD,CAMPBELLSVILLE,42718,TAYLOR,(270) 465-3506,TONYA,HAINES,"CAMPBELLSVILLE OPERATING COMPANY, LLC",67,,67,,,,,,4/1/19,3/31/20,SB,SB,,,
101154,CARDINAL HILL SKILLED REHABILITATION UNIT,2050 VERSAILLES ROAD,LEXINGTON,40504,FAYETTE,(859) 254-5701,CHASITY,PARIS,"ENCOMPASS HEALTH REHABILITATION HOSPITAL OF CARDINAL HILL, LLC",74,,74,,,,,,12/1/18,11/30/19,EB,EB,,,
100082,CARMEL HOME,2501 OLD HARTFORD RD.,OWENSBORO,42303,DAVIESS,(270) 683-0227,FRANCIS,SCULLY,CARMELITE SRS. OF THE DIVINE HEART OF JESUS OF KY,18,,36,,,,79,,9/1/19,8/31/20,WB,WB,,,
100056,CARMEL MANOR,100 CARMEL MANOR ROAD,FORT THOMAS,41075,CAMPBELL,(859) 781-5111,LEDA,DOMINO,CARMEL MANOR,95,,95,,,,80,,1/1/19,12/31/19,EB,EB,,,
100571,CARTER NURSING AND REHABILITATION,250 MCDAVID BLVD,GRAYSON,41143,CARTER,(606) 474-7835,JOE,BRAINARD,"CARTER NURSING AND REHABILITATION, LLC",120,,120,,,,,,3/1/19,2/29/20,EB,EB,,,
100450,CEDAR LAKE LODGE,3301 JERICHO ROAD,LA GRANGE,40031,OLDHAM,(502) 222-7157,NATHANIAL,MEADE,"CEDAR LAKE LODGE, INC.",63,,,,,,,63,12/1/18,11/30/19,NB,NB,,,
101119,CEDAR LAKE LODGE - PARK PLACE I,325 PARK ROAD,NEW CASTLE,40050,HENRY,(502) 845-8996,JEFF,MINIARD,"CEDAR LAKE LODGE, INC.",8,,,,,,,8,11/1/19,10/31/20,NB,NB,,,
101120,CEDAR LAKE LODGE - PARK PLACE II,327 PARK ROAD,NEW CASTLE,40050,HENRY,(502) 845-8996,JEFF,MINIARD,"CEDAR LAKE LODGE, INC.",8,,,,,,,8,11/1/19,10/31/20,NB,,,,
101246,CEDAR LAKE LODGE SYCAMORE RUN I,4804 SYCAMORE RIDGE LN,LA GRANGE,40031,OLDHAM,(502)425-5323,JEFF,MINIARD,"CEDAR LAKE, INC.",4,,,,,,,4,8/1/19,7/31/20,NB,,,,
101247,CEDAR LAKE LODGE SYCAMORE RUN II,4804 SYCAMORE RIDGE LN,LA GRANGE,40031,OLDHAM,(502)425-5323,JEFF,MINIARD,"CEDAR LAKE, INC.",4,,,,,,,4,8/1/19,7/31/20,NB,,,,
100751,CEDAR RIDGE HEALTH CAMPUS,1217 US HIGHWAY 62 E,CYNTHIANA,41031,HARRISON,(859) 234-2702,SOMER,HURSTON,"TRILOGY HEALTHCARE OF CYNTHIANA, LLC",53,,48,5,2,,41,,11/1/19,10/31/20,EB,,,,
100325,CEDARS OF LEBANON NURSING CENTER,337 SOUTH HARRISON STREET,LEBANON,40033,MARION,(270) 692-3121,TAMMY,GRIBBINS,"THE VILLAGE OF LEBANON, LLC",81,,81,,,,,,6/1/19,5/31/20,SB,SB,,,
100037,CHARLESTON HEALTH CARE CENTER,203 BRUCE COURT,DANVILLE,40423,BOYLE,(859) 236-9292,MARLIN,SPARKS,"MARLIN K. SPARKS MANAGEMENT COMPANY, INC.",90,,90,,,,,,5/1/19,4/30/20,SB,SB,,,
100221,CHEROKEE PARK REHABILITATION,2100 MILLVALE ROAD,LOUISVILLE,40205,JEFFERSON,(502) 451-0990,SUE,POPPLEWELL,"CHEROKEE PARK REHABILITATION, LLC",84,,84,,,,,,2/1/19,1/31/20,NB,NB,,,
100300,"CHRISTIAN CARE CENTER OF KUTTAWA, LLC",1253 LAKE BARKLEY DRIVE,KUTTAWA,42055,LYON,(270) 388-2291,HUGHES,ASH,"CHRISTIAN CARE CENTER OF KUTTAWA, LLC",65,,65,,,,,,9/1/19,8/31/20,WB,WB,,,
100486,CHRISTIAN HEALTH CENTER,200 STERLING DRIVE,HOPKINSVILLE,42240,CHRISTIAN,(270) 885-1166,CAROL,BRITT,"CHRISTIAN CARE COMMUNITIES, INC.",114,,112,2,,,2,,3/1/19,2/29/20,WB,WB,,,
100200,CHRISTIAN HEALTH CENTER,920 SOUTH FOURTH STREET,LOUISVILLE,40203,JEFFERSON,(502) 583-6533,JOHN,KEATON,"CHRISTIAN CARE COMMUNITIES, INC.",122,,118,4,,,,,10/1/19,9/30/20,NB,NB,,,
100540,CHRISTIAN HEALTH CENTER,116 SOUTH COMMONWEALTH AVENUE,CORBIN,40702,KNOX,(606) 258-2500,JANET,LOVITT,"CHRISTIAN CARE COMMUNITIES, INC.",104,,100,4,,,2,,1/1/19,12/31/19,SB,SB,,,
100691,CHRISTIAN HEALTH CENTER,1800 WESTEN AVENUE,BOWLING GREEN,42104,WARREN,(270) 796-6643,HEATHER,OBANION,"CHRISTIAN CARE COMMUNITIES, INC.",39,,22,17,2,,60,,12/1/18,11/30/19,WB,WB,,,
100069,CHRISTIAN HEIGHTS NURSING AND REHABILITATION CENTE,124 WEST NASHVILLE ST,PEMBROKE,42266,CHRISTIAN,(270) 475-4227,TAMMY,WORKMAN,"PEMBROKE OPERATING COMPANY, LLC",60,,60,,,,,,6/1/19,5/31/20,WB,WB,,,
100740,CLARK REGIONAL MEDICAL CENTER,175 HOSPITAL DRIVE,WINCHESTER,40391,CLARK,(859) 737-8559,CLAYTON,NIEMAN,"KENTUCKY HOSPITAL, LLC",25,,25,,,,,,3/1/19,2/29/20,EB,EB,,,
100231,CLIFTON OAKS CARE CENTER ,446 MT. HOLLY AVE,LOUISVILLE,40206,JEFFERSON,(502) 897-1646,JEFFREY,THOMPSON,"MT.HOLLY LEASING, LLC",110,,110,,,,,,7/1/19,6/30/20,NB,NB,,,
100555,CLINTON COUNTY CARE AND REHABILITATION CENTER,404 NORTH WASHINGTON STREET,ALBANY,42602,CLINTON,(606) 387-6623,DONNA,LEE,"LP ALBANY, LLC",52,,52,,,,,,11/1/19,10/31/20,SB,SB,,,
100181,CLINTON PLACE,106 PADGETT DRIVE,CLINTON,42031,HICKMAN,(270) 653-5558,TRELLA,WILSON,"Birchwood Nursing and Rehabilitation, LLC",88,,88,,,,10,,12/1/18,12/31/19,WB,WB,,,
100180,CLINTON-HICKMAN COUNTY NURSING FACILITY,366 S. WASHINGTON ST.,CLINTON,42031,HICKMAN,(270) 653-2461,JENNIFER,CONNELL,"CLINTON HICKMAN COUNTY HOSPITAL, INC.",46,,46,,,,10,,10/1/19,9/30/20,WB,WB,,,
101099,"COLDSPRING TRANSITIONAL CARE CENTER, LLC",300 PLAZA DRIVE,COLD SPRING,41076,CAMPBELL,(859) 441-4600,ADAM,LEWANDOWSKI,"COLDSPRING TRANSITIONAL CARE CENTER, LLC",143,,143,,,,,,12/1/18,11/30/19,EB,EB,,,
100405,COLONIAL CENTER,2365 NASHVILLE ROAD,BOWLING GREEN,42101,WARREN,(270) 842-1641,JESSICA,LOPEZ,"HBR BOWLING GREEN, LLC",48,,48,,,,,,11/1/19,10/31/20,WB,WB,,,
100481,CONCORDIA HEALTHCARE CENTER-HERITAGE MANOR,401 INDIANA AVE,MAYFIELD,42066,GRAVES,(270) 247-0200,CRYSTAL,JANES,"EAGLE ACQUISITION III,LLC",100,,100,,,,,,5/1/19,4/30/20,WB,WB,,,
100343,CONCORDIA NURSING AND REHABILITATION-MAPLE,515 GREENE DRIVE,GREENVILLE,42345,MUHLENBERG,(270) 338-5400,VICKI,BUTLER,"EAGLE ACQUISITION II,LLC",97,,97,,,,,,8/1/19,7/31/20,WB,WB,,,
100416,CORBIN HEALTH AND REHABILITATION CENTER,270 BACON CREEK ROAD,CORBIN,40702,WHITLEY,(606) 528-8822,CHADWICK,HILL,"CORBIN NURSING HOME, INC.",100,,100,,,,,,1/1/19,12/31/19,SB,SB,,,
100663,COUNTRYSIDE CENTER FOR REHABILITATION AND NURSING,47 MARGO AVENUE,BARDWELL,42023,CARLISLE,(270) 628-5424,MARILYN,INGRAM,"COUNTRYSIDE CENTER FOR REHABILITATION AND NURSING, LLC",53,,53,,,,8,,8/1/19,7/31/20,WB,WB,,,
100067,COVINGTON'S CONVALESCENT CENTER,115 CAYCE ST,HOPKINSVILLE,42240,CHRISTIAN,(270) 886-4403,WILLIAM,COVINGTON,"COVINGTON CONVALESCENT CENTER, INC.",72,,72,,,,,,5/1/19,4/30/20,WB,WB,,,
100299,"CREEKWOOD PLACE NURSING AND REHAB CENTER, INC",107 BOYLES DRIVE,RUSSELLVILLE,42276,LOGAN,(270) 726-9049,CHRISTY,JORDAN,"CREEKWOOD PLACE NURSING AND REHAB CENTER, INC.",104,,104,,,,,,1/1/19,12/31/19,WB,WB,,,
100383,CRESTVIEW CENTER,1871 MIDLAND TRAIL,SHELBYVILLE,40065,SHELBY,(502) 633-2454,STEVE,MCKINLEY,"CRESTVIEW NURSING, LLC",58,,58,,,,,,12/1/18,11/30/19,NB,NB,,,
100079,CRITTENDEN COUNTY HEALTH AND REHABILITATION CENTER,201 WATSON STREET,MARION,42064,CRITTENDEN,(270) 965-2218,JILL,MCCONNELL,"ORION MARION, LLC",101,,101,,,,4,,5/1/19,4/30/20,WB,WB,,,
100373,CUMBERLAND NURSING AND REHABILITATION CENTER,200 NORFLEET DRIVE,SOMERSET,42501,PULASKI,(606) 678-5104,JILL,SPURGEON,"SUNRISE MANOR OPCO, LLC",93,,93,,,,,,1/1/19,12/31/19,SB,SB,,,
100471,CUMBERLAND VALLEY MANOR,301 SOUTH MAIN STREET,BURKESVILLE,42717,CUMBERLAND,(270) 864-4315,MARIBETH,SHELTON,CUMBERLAND VALLEY MANOR,84,,84,,,,,,6/1/19,5/31/20,SB,SB,,,
100036,DANVILLE CENTRE FOR HEALTH AND REHABILITATION,642 NORTH THIRD STREET,DANVILLE,40422,BOYLE,(859) 236-3972,PENNY,UPTON,"LP DANVILLE, LLC",106,,106,,,,,,2/1/19,1/31/20,SB,SB,,,
100188,DAWSON SPRINGS HEALTH AND REHABILITATION CENTER,213 WATER STREET,DAWSON SPRINGS,42408,HOPKINS,(270) 797-2025,MARGARET,CURTIS,"DAWSON POINTE, LLC",59,,59,,,,,,8/1/19,7/31/20,WB,WB,,,
100694,DEL MARIA ICF/IID,5512 DEL MARIA WAY,LOUISVILLE,40291,JEFFERSON,(502) 499-7203,KELLY,MANGUM,CABINET FOR HEALTH SERVICES,8,,,,,,,8,1/1/19,12/31/19,NB,NB,,,
100205,EASTERN STAR HOME IN KY,923 EASTERN STAR COURT,LOUISVILLE,40204,JEFFERSON,(502) 451-3535,ROBERT,RIVERA,"EASTERN STAR HOME IN KENTUCKY, INC.",0,,,,18,,24,,7/1/19,6/30/20,NB,NB,,,
100166,EDGEMONT HEALTHCARE,323 WEBSTER AVENUE,CYNTHIANA,41031,HARRISON,(859) 234-4595,DANNITA,MORGAN,EDGEMONT HEALTHCARE,68,,68,,,,,,12/1/18,11/30/19,EB,EB,,,
100700,EDGEWOOD ESTATES,195 BERRYMAN ROAD,FRENCHBURG,40322,MENIFEE,(606) 768-9001,CYNTHIA,CLIFFORD,MENIFEE COUNTY NURSING HOME CORP.,60,,60,,,,8,,5/1/19,4/30/20,SB,SB,,,
100680,EDMONSON CENTER,813 S. MAIN ST.,BROWNSVILLE,42210,EDMONSON,(270) 597-2335,CHRIS,SWIHART,"HBR BROWNSVILLE, LLC",74,,74,,,,12,,10/1/19,9/30/20,WB,WB,,,
100161,ELIZABETHTOWN NURSING AND REHABILITATION CENTER,1101 WOODLAND DRIVE,ELIZABETHTOWN,42701,HARDIN,(270) 765-6106,CRYSTAL,HAMILTON,"ELIZABETHTOWN OPCO, LLC",65,,65,,,,,,5/1/19,4/30/20,NB,NB,,,
100690,ELLIOTT NURSING AND REHABILITATION,"RT 32  EAST, HOWARD CREEK RD",SANDY HOOK,41171,ELLIOTT,(606) 738-9400,RACHELLE,STEVENS,"ELLIOTT NURSING AND REHABILITATION, LLC",75,,75,,,,,,11/1/19,10/31/20,EB,EB,,,
101299,EMERALD TRACE,3802 TURKEYFOOT RD,ELSMERE,41018,KENTON,(859)342-0200,BRADLEY,STANFORD,"KENTON HOUSING, INC",54,,54,,,,20,,1/1/19,12/31/19,EB,EB,,,
100710,EPHRAIM MCDOWELL REGIONAL MEDICAL CENTER,217 SOUTH THIRD STREET,DANVILLE,40422,BOYLE,(859) 239-2336,SUSAN,MATHERLY,"EPHRAIM MCDOWELL REGIONAL MEDICAL CENTER, INC.",25,,25,,,,,,4/1/19,3/31/20,SB,SB,,,
100518,ESSEX NURSING AND REHABILITATION CENTER,9600 LAMBORNE BOULEVARD,LOUISVILLE,40272,JEFFERSON,(502) 935-7284,ROBERT,FLATT,"HANGING ROCK, LTC, LLC",128,,128,,,,,,3/1/19,2/29/20,NB,NB,,,
100466,"FAIR OAKS HEALTH SYSTEMS, LLC",1 SPARKS AVENUE,JAMESTOWN,42629,RUSSELL,(270) 343-2101,CHRIS,MINNICH,"FAIR OAKS HEALTH SYSTEMS, LLC",114,,114,,,,,,8/1/19,7/31/20,SB,SB,,,
100747,FLAGET MEMORIAL HOSPITAL NF,4305 NEW SHEPHERDSVILLE ROAD,BARDSTOWN,40004,NELSON,(502) 350-5000,DELISA,ARNOLD,"FLAGET HEALTHCARE, INC.",12,,12,,,,,,5/1/19,4/30/20,NB,,,,
100547,FLORENCE PARK CARE CENTER,6975 BURLINGTON PIKE,FLORENCE,41042,BOONE,(513) 605-5000,PENINAH,WOOD,"EVAN GRAY, LLC",150,,150,,,,,,1/1/19,12/31/19,EB,EB,,,
100351,FORDSVILLE NURSING AND REHABILITATION CENTER,313 MAIN STREET,FORDSVILLE,42343,OHIO,(270) 276-3603,PAUL ,SHEPARD,"FORDSVILLE OPCO, LLC",67,,67,,,,,,8/1/19,7/31/20,WB,WB,,,
101222,FOREST SPRINGS HEALTH CAMPUS,4120 WOODED ACRE LANE,LOUISVILLE,40245,JEFFERSON,(502) 243-1643,MATTHEW,JONES,"TRILOGY HEALTHCARE OF LOUISVILLE NORTHEAST, LLC",58,,58,,,,37,,5/1/19,4/30/20,NB,NB,,,
100074,FOUNTAIN CIRCLE CARE AND REHABILITATION CENTER,200 GLENWAY ROAD,WINCHESTER,40391,CLARK,(859) 744-1800,LISA,COLLIER,"LP WINCHESTER, LLC",179,,179,,,,,,9/1/19,8/31/20,EB,EB,,,
100196,FRANCISCAN HEALTH CARE CENTER,3625 FERN VALLEY ROAD,LOUISVILLE,40219,JEFFERSON,(502) 964-3381,BRIAN,WILLOUGHBY,"TRILOGY HEALTHCARE OF JEFFERSON, LLC",85,,85,,,,,,2/1/19,1/31/20,NB,NB,,,
100512,FRANKFORT REHABILITATION AND CARE,117 OLD SOLDIERS LANE,FRANKFORT,40601,FRANKLIN,(502) 875-7272,SARAH,MILLS,"FRANKFORT LEASING, LLC",100,,100,,,,,,6/1/19,5/31/20,EB,EB,,,
100391,FRANKLIN-SIMPSON NURSING AND REHABILITATION CENTER,414 ROBEY ST.,FRANKLIN,42135,SIMPSON,(270) 586-7141,AMY,BLAIR,"FRANKLIN HEALTH CENTER, LLC",98,,98,,,,,,4/1/19,3/31/20,WB,WB,,,
100355,"FRIENDSHIP HEALTH AND REHAB, LLC",7400 LAGRANGE RD,PEWEE VALLEY,40056,OLDHAM,(502) 241-8821,ROBERT,YOUNG,"FRIENDSHIP HEALTH AND REHAB, LLC",128,,128,,,,,,9/1/19,8/31/20,NB,NB,,,
100132,"FULTON NURSING AND REHABILITATION, LLC",1004 HOLIDAY LANE,FULTON,42041,FULTON,(270) 472-1971,LINDSAY,FRAZIER,"FULTON NURSING AND REHABILITATION, LLC",60,,60,,,,,,4/1/19,3/31/20,WB,WB,,,
100632,GALLATIN NURSING AND REHAB,499 CENTER STREET,WARSAW,41095,GALLATIN,(859) 567-4548,STACIE,DARNOLD,"GALLANTINIDENCE OPCO, LLC",120,,120,,,,,,11/15/18,11/30/19,NB,NB,,,
100483,GLASGOW STATE NURSING FACILITY,207 STATE AVENUE,GLASGOW,42141,BARREN,(270) 659-4700,AMANDA,ALLEN,COMMONWEALTH OF KENTUCKY,100,,100,,,,,,11/1/19,10/31/20,WB,WB,,,
100729,GLEN RIDGE HEALTH CAMPUS,6415 CALM RIVER WAY,LOUISVILLE,40299,JEFFERSON,(502) 297-8590,LAUREN,CLAYTON,"TRILOGY HEALTHCARE OF GLEN RIDGE, LLC",70,,70,,,,26,,8/1/19,7/31/20,NB,NB,,,
100012,GLENVIEW HEALTH CARE FACILITY,1002 GLENVIEW DR.,GLASGOW,42141,BARREN,(270) 651-8332,KAY,BUSH,GLENVIEW HEALTH CARE FACILITY INC.,60,,60,,,,,,4/1/19,3/31/20,WB,WB,,,
100516,GOOD SHEPHERD HEALTH AND REHABILITATION,60 PHILLIPS BRANCH ROAD,PHELPS,41553,PIKE,(606) 456-8725,JAMIE,SLONE,"PRESBYTERIAN HOMES AND SERVICES OF KY, INC",118,,118,,,,2,,11/1/19,10/31/20,SB,SB,,,
100522,GRAND HAVEN NURSING HOME,105 RODGERS PARK,CYNTHIANA,41031,HARRISON,(859) 234-2050,ASHLEE,GAUNCE,"MARTIN'S REST HOME, INC.",54,,54,,,,,,4/1/19,3/31/20,EB,EB,,,
100594,GRANT CENTER,201 KIMBERLY LANE,WILLIAMSTOWN,41097,GRANT,(859) 824-7803,LESLIE MICHELLE,WALLACE,"GRANT MANOR, LLC",95,,95,,,,,,4/1/19,3/31/20,EB,EB,,,
100150,GRAYSON NURSING AND REHABILITATION,505 WILLIAM THOMASON BYWAY,LEITCHFIELD,42754,GRAYSON,(270) 259-4028,JEFFREY,BAXLEY,"GRAYSON HOUSING, INC.",72,,72,,,,30,,8/1/19,7/31/20,WB,WB,,,
100144,GREEN ACRES HEALTH CARE,402 W. FARTHING STREET,MAYFIELD,42066,GRAVES,(270) 247-6477,CHRISTOPHER,LINTON,"GREEN ACRES HEALTH SERVICES, INC.",73,,73,,,,,,2/1/19,1/31/20,WB,WB,,,
100152,GREEN HILL REHABILITATION AND CARE,213 INDUSTRIAL ROAD,GREENSBURG,42743,GREEN,(270) 932-4241,DAVID,GARST,"GREEN HILL LEASING, LLC",118,,118,,,,,,6/1/19,5/31/20,SB,SB,,,
100342,GREENVILLE NURSING AND REHABILITATION,521 GREENE DR.,GREENVILLE,42345,MUHLENBERG,(270) 338-1523,JORDAN,VINSON,"GREENVILLE NURSING AND REHABILITATION, LLC",62,,62,,,,14,,12/1/18,11/30/19,WB,WB,,,
100498,GREENWOOD NURSING AND REHABILITATION CENTER,5079 SCOTTSVILLE RD.,BOWLING GREEN,42104,WARREN,(270) 782-1125,JONATHAN,MCGUIRE,"THAMES HEALTHCARE GROUP, LLC",128,,128,,,,,,6/1/19,5/31/20,WB,WB,,,
100480,"HARBORVIEW DOVER, LLC",112 DOVER DRIVE,GEORGETOWN,40324,SCOTT,(502) 863-9529,DUSTYN,SLOAN,"HARBORVIEW DOVER, LLC",85,,85,,,,,,7/1/19,6/30/20,EB,EB,,,
100041,HARDINSBURG NURSING AND REHABILITATION CENTER,101 FAIRGROUNDS ROAD,HARDINSBURG,40143,BRECKINRIDGE,(270) 756-2159,JOSEPH,VANCE,"HARDINSBURG HEALTH CENTER, LLC",63,,63,,,,,,9/1/19,8/31/20,NB,NB,,,
100510,HARLAN HEALTH AND REHABILITATION CENTER,200 MEDICAL CENTER DRIVE,HARLAN,40831,HARLAN,(606) 573-7250,GAIL,HENSLEY,"HARLAN NURSING HOME, INC.",143,,143,,,,,,11/1/19,10/31/20,SB,SB,,,
100457,HARRODSBURG HEALTH AND REHABILITATION CENTER,853 LEXINGTON ROAD,HARRODSBURG,40330,MERCER,(859) 734-7791,JODI,JOHNSON,"LP HARRODSBURG, LLC",112,,112,,,,,,8/1/19,7/31/20,EB,EB,,,
100462,HAZARD HEALTH AND REHABILITATION CENTER,390 PARK AVENUE,HAZARD,41702,PERRY,(606) 439-2306,CHARLOTTE,THORNSBERRY,"HAZARD NURSING HOME, INC",200,,200,,,,,,3/1/19,2/29/20,SB,SB,,,
100211,HAZELWOOD CENTER,1800 BLUEGRASS AVE.,LOUISVILLE,40215,JEFFERSON,(502) 361-2301,KELLY,MANGUM,COMMONWEALTH OF KENTUCKY,201,,,,,,,201,5/1/19,4/30/20,NB,NB,,,
100395,HEARTHSTONE PLACE,506 ALLENSVILLE ROAD,ELKTON,42220,TODD,(270) 265-5321,ELIZABETH,GETTINGS,BOLSTER AND JEFFRIES HEALTHCARE GROUP LLC,60,,60,,,,,,6/1/19,5/31/20,WB,WB,,,
100679,HEARTLAND VILLA CENTER,8005 US HWY 60 WEST,LEWISPORT,42351,HANCOCK,(270) 295-6756,TRACEY,BUTLER,HBR LEWISPORT LLC,45,,45,,,,,,11/1/19,10/31/20,WB,WB,,,
100576,HELMWOOD HEALTHCARE CENTER,106 DIECKS DRIVE ,ELIZABETHTOWN,42701,HARDIN,(270) 737-2738,RACHEL,WHOBREY,PRESBYTERIAN HOMES AND SERVICES OF KENTUCKY,60,,60,,,,,,2/1/19,1/31/20,NB,NB,,,
100175,HENDERSON NURSING AND REHABILITATION CENTER,2500 NORTH ELM ST.,HENDERSON,42420,HENDERSON,(270) 826-9794,TYLER,RUMMAGE,"HENDERSON OPCO, LLC",90,,90,,,,,,12/1/18,11/30/19,WB,WB,,,
100086,HERMITAGE CARE AND REHABILITATION CENTER,"1614 PARRISH AVE, WEST",OWENSBORO,42301,DAVIESS,(270) 684-4559,LOGAN,MIDKIFF,"LP OWENSBORO, LLC",92,,70,22,,,,,7/1/19,6/30/20,WB,WB,,,
100485,HICKS GOLDEN YEARS NURSING HOME,1901 WEST HIGHWAY 90 BYPASS,MONTICELLO,42633,WAYNE,(606) 348-6034,DARRELL,HICKS,"HICKS' ENTERPRISES OF MONTICELLO, LLC",59,,59,,,,1,,12/1/18,11/30/19,SB,SB,,,
100726,HIGHLANDS ARH REGIONAL MEDICAL CENTER,5000 KY ROUTE 321,PRESTONSBURG,41653,FLOYD,(606) 886-7600,TIM,HATFIELD,"ARH TUG VALLEY HEALTH SERVICES, INC.",0,,18,,,,,,2/1/19,1/31/20,SB,SB,,,
100218,HIGHLANDS NURSING AND REHABILITATION,1705 STEVENS AVENUE,LOUISVILLE,40205,JEFFERSON,(502) 451-7330,KATHY,HOLDERMAN,"HIGHLANDS NURSING AND REHABILITATION, LLC",154,,154,,,,,,4/1/19,3/31/20,NB,NB,,,
100664,HIGHLANDSPRING OF FT THOMAS,960 HIGHLAND AVENUE,FORT THOMAS,41075,CAMPBELL,(859) 572-0660,JULIE,LEHMANN,"HIGH-DAY, LLC",140,,140,,,,,,11/1/19,10/31/20,EB,EB,,,
100212,HILLCREEK REHABILITATION AND CARE ,3116 BRECKINRIDGE LANE,LOUISVILLE,40220,JEFFERSON,(502) 459-9120,THOMAS,RAWLINS,"HILLCREEK LEASING, LLC",172,,172,,,,,,1/1/19,12/31/19,NB,NB,,,
100425,HILLCREST HEALTH AND REHABILITATION CENTER,1245 AMERICAN GREETING ROAD,CORBIN,40702,WHITLEY,(606) 528-8917,GAIL,GIBBS,"HILLCREST NURSING HOME OF CORBIN, INC.",120,,120,,,,,,7/1/19,6/30/20,SB,SB,,,
100189,HILLSIDE CENTER,1500 PRIDE AVENUE,MADISONVILLE,42431,HOPKINS,(270) 821-1813,LAINIE,BRINKLEY,HBR MADISONVILLE LLC,71,,71,,,,,,2/1/19,1/31/20,WB,WB,,,
100493,HOME OF THE INNOCENTS,1100 EAST MARKET STREET,LOUISVILLE,40206,JEFFERSON,(502) 596-1000,JEFF,LEWIS,"HOME OF THE INNOCENTS, INC.",76,,76,,,,,,6/1/19,5/31/20,NB,NB,,,
100108,HOMESTEAD POST ACUTE,1608 VERSAILLES ROAD,LEXINGTON,40504,FAYETTE,(859) 252-0871,JUSTIN ,HOLMAN,"HOMESTEADIDENCE OPCO, LLC",136,,136,,,,,,6/1/19,5/31/20,EB,EB,,,
100408,HOPKINS CENTER,460 SOUTH COLLEGE STREET,WOODBURN,42170,WARREN,(270) 529-2853,LOREN,WARD,"HBR WOODBURN, LLC",50,,50,,,,,,11/1/19,10/31/20,WB,WB,,,
100624,HYDEN HEALTH AND REHABILITATION CENTER,21040 US HWY 421 SOUTH,HYDEN,41749,LESLIE,(606) 672-2940,MELISSA,SPARKS,"HYDEN NURSING HOME, LLC",94,,94,,,,,,11/1/19,10/31/20,SB,SB,,,
100437,IRVINE NURSING AND REHABILITATION CENTER,411 BERTHA WALLACE DRIVE,IRVINE,40336,ESTILL,(606) 723-5153,KRISTY,CANTER,"IRVINE OPERATING COMPANY, LLC",86,,86,,,,2,,4/1/19,3/31/20,SB,SB,,,
100222,JEFFERSONTOWN REHABILITATION,3500 GOOD SAMARITAN WAY,JEFFERSONTOWN,40299,JEFFERSON,(502) 267-7403,KARA,MEREDITH,"JEFFERSONTOWN OPCO, LLC",98,,98,,,,,,7/1/19,6/30/20,NB,NB,,,
100349,JOHNSON MATHERS NURSING HOME,2323 CONCRETE ROAD,CARLISLE,40311,NICHOLAS,(859) 289-3904,TRULY,PENNINGTON,"THAMES HEALTHCARE GROUP, LLC",104,,104,,,,,,6/1/19,5/31/20,EB,EB,,,
100978,JOSEPH EDDIE BALLARD WESTERN KENTUCKY VETERANS CEN,926 VETERANS DRIVE,HANSON,42413,HOPKINS,(270) 322-9087,LADONNA,SCOTT,COMMONWEALTH OF KENTUCKY,156,,156,,,,,,3/1/19,2/29/20,WB,WB,,,
100158,KENSINGTON CENTER,225 SAINT JOHN ROAD,ELIZABETHTOWN,42701,HARDIN,(270) 769-3314,CASSIE,ALLEN,"HBR ELIZABETHTOWN, LLC",82,,82,,,,,,1/1/19,12/31/20,NB,NB,,,
100321,KENWOOD HEALTH AND REHABILITATION CENTER,130 MEADOWLARK DRIVE,RICHMOND,40475,MADISON,(859) 623-9472,GLENN,COX,"KENWOOD HEALTH CENTER, LLC",93,,93,,,,,,7/1/19,6/30/20,SB,SB,,,
100765,KINDRED HOSPITAL - LOUISVILLE,1313 ST. ANTHONY PLACE,LOUISVILLE,40205,JEFFERSON,(502) 627-1589,STEPHANIE,WISE,"KINDRED HOSPITALS, LIMITED PARTNERSHIP",47,,47,,,,,,5/1/19,4/30/20,NB,NB,,,
100232,KINDRED NURSING AND REHABILITATION-BASHFORD,5000 CHAMBERLAIN LANE,LOUISVILLE,40218,JEFFERSON,(502) 459-1400,DANA,COX,KINDRED NURSING CENTERS LIMITED PARTNERSHIP,122,,122,,,,,,11/1/19,10/31/20,NB,NB,,,
100031,KINGS DAUGHTERS MEDICAL CENTER,2201 LEXINGTON AVE,ASHLAND,41101,BOYD,606-408-0382,MICHAEL,THOMPSON,ASHLAND HOSPITAL CORPORATION,20,,20,,,,,,3/1/19,2/28/20,EB,EB,,,
100029,KINGSBROOK LIFECARE CENTER,2500 STATE ROUTE 5,ASHLAND,41102,BOYD,(606) 324-1414,CURTIS,METZLER,ASHLAND NURSING HOME CORPORATION,137,,137,,,,,,4/1/19,3/31/20,EB,EB,,,
100424,KLONDIKE CENTER,3802 KLONDIKE LANE,LOUISVILLE,40218,JEFFERSON,(502) 452-1579,JASON,ARMSTRONG,"KLONDIKE MANOR, LLC",62,,62,,,,,,2/1/19,1/31/20,NB,NB,,,
100495,KNOTT COUNTY HEALTH AND REHABILITATION CENTER,388 PERKINS MADDEN ROAD,HINDMAN,41822,KNOTT,(606) 785-5011,RUBY,PIGMAN,"KNOTT COUNTY NURSING HOME, INC.",92,,92,,,,,,6/1/19,5/31/20,SB,SB,,,
100708,LAKE CUMBERLAND REGIONAL HOSPITAL SCU,305 LANGDON STREET,SOMERSET,42502,PULASKI,(606) 678-3323,JEFF,HERNDON,"LAKE CUMBERLAND REGIONAL HOSPITAL, LLC",12,,12,,,,,,7/1/19,6/30/20,SB,SB,,,
100514,LAKE WAY NURSING AND REHABILITATION CENTER,2607 MAIN STREET HWY 641 SOUTH,BENTON,42025,MARSHALL,(270) 527-3296,TAMMY,YORK,"THAMES HEALTHCARE GROUP, LLC",96,,96,,,,,,4/1/19,3/31/20,WB,WB,,,
100489,"LANDMARK OF BARDSTOWN REHABILITATION AND NURSING CENTER, LLC",120 LIFE CARE WAY,BARDSTOWN,40004,NELSON,(502) 348-4220,RHONDA,SMITH,"LANDMARK OF BARDSTOWN REHABILITATION AND NURSING CENTER, LLC",100,,100,,,,,,5/1/19,4/30/20,NB,NB,,,
100521,"LANDMARK OF ELKHORN CITY REHABILITATION AND NURSING CENTER, LLC",945 WEST RUSSELL STREET,ELKHORN CITY,41522,PIKE,(606) 754-4134,DEBRA,HUNT,"LANDMARK OF ELKHORN CITY REHABILITATION AND NURSING CENTER, LLC",106,,106,,,,,,12/1/19,11/30/20,SB,SB,,,
100208,LANDMARK OF IROQUOIS PARK AND NURSING CENTER,900 GAGEL AVENUE,LOUISVILLE,40216,JEFFERSON,(502) 368-5827,CATHY,ALLEN,"LANDMARK OF IROQUOIS PARK AND NURSING CENTER, LLC",120,,120,,,,,,12/1/18,11/30/19,NB,NB,,,
100719,LANDMARK OF LANCASTER REHABILITATION AND NURSING CENTER,308 WEST MAPLE AVENUE,LANCASTER,40444,GARRARD,(859) 792-6844,TINA,WHITT,"LANDMARK OF LANCASTER REHABILITATION AND NURSING CENTER, LLC",96,,96,,,,,,7/1/19,6/30/20,SB,SB,,,
100502,"LANDMARK OF LAUREL CREEK REHABILITATION AND NURSING CENTER, LLC",1033 NORTH HIGHWAY 11,MANCHESTER,40962,CLAY,(606) 598-6163,SUSAN,BUSH,"LANDMARK OF LAUREL CREEK REHABILITATION AND NURSING CENTER, LLC",106,,106,,,,,,8/1/19,7/31/20,SB,SB,,,
100239,"LANDMARK OF LOUISVILLE REHABILITATION AND NURSING CENTER, LLC. ",1155 EASTERN PARKWAY,LOUISVILLE,40217,JEFFERSON,(502) 636-5241,CRAIG,JENNINGS,"LANDMARK OF LOUISVILLE REHABILITATION AND NURSING CENTER, LLC. ",252,,252,,,,,,2/1/19,1/31/20,NB,NB,,,
100536,"LANDMARK OF RIVER CITY REHABILITATION AND NURSING CENTER, LLC",1015 WEST MAGAZINE STREET,LOUISVILLE,40203,JEFFERSON,(502) 815-6460,KEN,BOGARD,"LANDMARK OF RIVER CITY REHABILITATION AND NURSING CENTER, LLC",92,,92,,,,,,10/1/18,Pending Renewal,NB,NB,,,
100280,LAUREL HEIGHTS HOME FOR THE ELDERLY,208 WEST TWELFTH STREET,LONDON,40743,LAUREL,(606) 864-4155,KATHEY,YOUNG,"LAUREL HOUSING, INC.",160,,143,17,,,,,5/1/19,4/30/20,SB,SB,,,
100284,LEE COUNTY CARE AND REHABILITATION CENTER,246 EAST MAIN STREET,BEATTYVILLE,41311,LEE,(606) 464-3611,MARILYN KAYE,WILSON,"LP BEATTYVILLE, LLC",109,,109,,,,,,4/1/19,3/31/20,SB,SB,,,
100604,LETCHER MANOR,73 PIEDMONT DRIVE,WHITESBURG,41858,LETCHER,(606) 633-1434,CARLA,BISHNOI,"DJLM OPERATIONS, LLC",142,,142,,,,,,10/1/19,9/30/20,SB,SB,,,
100527,LEXINGTON COUNTRY PLACE,700 MASON HEADLEY ROAD,LEXINGTON,40504,FAYETTE,(859) 276-1083,TINA,WHITT,FS LEXINGTON TENANT TRUST,59,,111,,,,22,,10/1/19,9/30/20,EB,EB,,,
100685,LIBERTY CARE AND REHABILITATION CENTER,616 S WALLACE WILKINSON BLVD,LIBERTY,42539,CASEY,(606) 787-6889,MARCELLA,HODGES,"LP LIBERTY, LLC",97,,97,,,,,,6/1/19,5/31/20,SB,SB,,,
100011,LIFE CARE CENTER OF LACENTER,252 W. 5TH ST.,LA CENTER,42056,BALLARD,(270) 665-5681,GINGER,ATKINS,"LA CENTER OPERATIONS, LLC",70,,70,,,,,,2/1/19,1/31/20,WB,WB,,,
100376,LIFE CARE CENTER OF MOREHEAD,933 NORTH TOLLIVER ROAD,MOREHEAD,40351,ROWAN,(606) 784-7518,WILLIAM,HURST,"CAMPBELL/PRESTON MEDICAL INVESTORS, LLC",97,,97,,,,,,2/1/19,1/31/20,EB,EB,,,
100641,LITTLE SISTERS OF THE POOR,15 AUDUBON PLAZA DRIVE,LOUISVILLE,40217,JEFFERSON,(502) 636-2300,PAUL,MAGYAR,"HOME FOR THE AGED LITTLE SISTERS OF THE POOR, INC",35,,35,,,,15,,4/1/19,3/31/20,NB,NB,,,
100439,LORETTO MOTHERHOUSE INFIRMARY,515 NERINX ROAD,NERINX,40049,MARION,(270) 865-5811,MICHELLE,ESSEX,LORETTO LITERARY AND BENEVOLENT INSTITUTION,55,,55,,,,30,,7/1/19,6/30/20,SB,SB,,,
100224,LOUISVILLE PROTESTANT ALTENHEIM,936 BARRETT AVENUE,LOUISVILLE,40204,JEFFERSON,(502) 584-7417,MARY JO,COKER,"LOUISVILLE PROTESTANT ALTENHEIM, INC.",0,,,8,24,,30,,2/1/19,1/31/20,NB,NB,,,
100192,LYNDON WOODS CARE & REHABILITATION,1101 LYNDON LANE,LOUISVILLE,40222,JEFFERSON,(502) 425-9779,KATHY,WOODS JONES,"CAMELOT LEASING, LLC",145,,145,,,,,,6/1/19,5/31/20,NB,NB,,,
100454,MADISON HEALTH AND REHABILITATION CENTER,131 MEADOWLARK DRIVE,RICHMOND,40475,MADISON,(859) 623-3564,REBECCA,BELL,"MADISON HEALTH CENTER, LLC",92,,92,,,,,,4/1/19,3/31/20,SB,SB,,,
100185,"MADISONVILLE HEALTH AND REHABILITATION, LLC",419 NORTH SEMINARY ST,MADISONVILLE,42431,HOPKINS,(270) 821-5564,JOHNNY,PLUNKETT,"MADISONVILLE HEALTH AND REHABILITATION, LLC",94,,94,,,,,,6/1/19,5/31/20,WB,WB,,,
100268,MADONNA MANOR,2344 AMSTERDAM ROAD,VILLA HILLS,41017,KENTON,(859) 426-6400,TRACY,IMHOFF,"MADONNA MANOR, INC.",60,,59,1,,,24,,11/1/19,10/31/20,EB,EB,,,
100647,MAGNOLIA VILLAGE,1381 CAMPBELL LANE,BOWLING GREEN,42104,WARREN,(270) 843-0587,JENNIFER,SOLDEVILLA,HBR CAMPBELL LANE LLC,60,,,,,60,,,7/1/19,6/30/20,WB,WB,,,
100661,MARTIN COUNTY HEALTH CARE FACILITY,62 MAUDE ROAD,INEZ,41224,MARTIN,(606) 298-0091,DEBORAH,FITZPATRICK,"MARTIN MANOR OPERATIONS, LLC",65,,65,,,,8,,6/1/19,5/31/20,SB,SB,,,
100225,MASONIC HOME OF LOUISVILLE,240 MASONIC HOME DRIVE,MASONIC HOME,40041,JEFFERSON,(502) 897-4907,NICK,COOPER,"MASONIC HOMES OF KENTUCKY, INC.",167,,167,,,,101,,12/1/18,11/30/19,NB,NB,,,
100386,MASONIC HOME OF SHELBYVILLE,711 FRANKFORT ROAD,SHELBYVILLE,40066,SHELBY,(502) 633-3486,CONJUNA,COLLIER,"MASONIC HOMES OF KENTUCKY, INC.",117,,117,,,,76,,7/1/19,6/30/20,NB,NB,,,
100111,MAYFAIR MANOR,3300 TATES CREEK ROAD,LEXINGTON,40502,FAYETTE,(859) 266-2126,ERICA,BROWN,"LP LEXINGTON, LLC",98,,98,,,,,,6/1/19,5/31/20,EB,EB,,,
100333,MAYSVILLE NURSING AND REHABILITATION FACILITY,620 PARKER ROAD,MAYSVILLE,41056,MASON,(606) 564-8835,JEFF,STIDAM,"MAYSVILLE OPERATIONS, LLC",130,,130,,,,,,7/1/19,6/30/20,EB,EB,,,
100727,MCDOWELL SKILLED NURSING FACILITY,"206 MILBY STREET, PO BOX 220",GREENSBURG,42743,GREEN,(270) 932-4211,BETH,ODLE,"JANE TODD CRAWFORD MEMORIAL HOSPITAL, INC.",0,,5,,,,,,1/1/19,12/31/19,SB,SB,,,
100695,MEADOWS ICF/IID,210 MEADOWS DRIVE,MOUNT WASHINGTON,40047,BULLITT,(502) 538-8151,KELLY,MANGUM,CABINET FOR HEALTH SERVICES,8,,,,,,,8,1/1/19,12/31/19,NB,NB,,,
100470,METCALFE HEALTH CARE CENTER,701 SKYLINE DRIVE,EDMONTON,42129,METCALFE,(270) 432-2921,AMY,NEIGHBORS,"METCALFE HEALTH SERVICES, INC.",71,,71,,,,21,,11/1/19,10/31/20,SB,SB,,,
100639,MIDDLESBORO NURSING AND REHABILITATION FACILITY,235 NEW WILSON LANE,MIDDLESBORO,40965,BELL,(606) 248-0925,MELISSA,ROBBINS,"MIDDLESBORO OPERATIONS, LLC",95,,95,,,,,,1/1/19,12/31/19,SB,SB,,,
100472,MILLS HEALTH AND REHAB CENTER,500 BECK LANE,MAYFIELD,42066,GRAVES,(270) 247-7890,DAVID,DIETZ,"MILLS OPCO, LLC",98,,98,,,,,,10/1/19,9/30/20,WB,WB,,,
100400,MORGANFIELD NURSING AND REHABILITATION CENTER,509 NORTH CARRIER ST.,MORGANFIELD,42437,UNION,(270) 389-3513,MARY,WOOD,"MORGANFIELD OPCO, LLC",60,,60,,,,,,4/1/19,3/31/20,WB,WB,,,
100045,MORGANTOWN CARE AND REHABILITATION CENTER,201 SOUTH WARREN STREET,MORGANTOWN,42261,BUTLER,(270) 526-3368,AMY,PHELPS,"LP MORGANTOWN, LLC",122,,122,,,,,,5/1/19,4/30/20,WB,WB,,,
100688,MOUNTAIN MANOR OF PAINTSVILLE,1025 EUCLID AVENUE,PAINTSVILLE,41240,JOHNSON,(606) 789-5808,EMILY,JONES-GRAY,"PAINTSVILLE INVESTORS, INC.",126,,126,,,,,,10/1/19,9/30/20,SB,SB,,,
100496,MOUNTAIN VIEW NURSING AND REHABILITATION CENTER,39 FERNDALE APARTMENTS ROAD,PINEVILLE,40977,BELL,(606) 337-7071,JAMES,HOBBS,"HANGING ROCK, LTC, LLC",115,,115,,,,,,2/1/19,1/31/20,SB,SB,,,
100467,NAZARETH HOME,2000 NEWBURG ROAD,LOUISVILLE,40205,JEFFERSON,(502) 459-9681,MARY,HAYNES,"NAZARETH HOME, INC",118,,118,,,,50,,4/1/19,3/31/20,NB,NB,,,
100248,NAZARETH HOME CLIFTON,2120 PAYNE STREET,LOUISVILLE,40206,JEFFERSON,(502) 895-9425,LISA,BIDDLE-PUFFER,"NAZERETH HOME, INC",121,,115,6,,,31,,5/1/19,4/30/20,NB,NB,,,
100435,NEW CASTLE NURSING & REHAB,50 ADAMS STREET,NEW CASTLE,40050,HENRY,(502) 845-2861,BENJAMIN,BREDNICH,"PROVIDENCE HEALTHCARE OF NEW CASTLE, LLC",60,,60,,,,,,1/1/19,12/31/19,NB,NB,,,
100015,"NHC HEALTHCARE, GLASGOW",109  HOMEWOOD BLVD.,GLASGOW,42141,BARREN,(270) 651-6126,DENISE,BILLINGSLEY,"NHC HEALTHCARE/GLASGOW, LLC",194,,194,,,,12,,11/1/19,10/31/20,WB,WB,,,
100442,NICHOLASVILLE NURSING & REHABILITATION,100 SPARKS AVENUE,NICHOLASVILLE,40356,JESSAMINE,(859) 885-4171,THOMAS,DAVIS,"NICHOLASVILLE NURSING AND REHABILITATION, LLC",73,,73,,,,,,11/1/19,10/31/20,EB,EB,,,
100040,NIM HENSON GERIATRIC CENTER,420 JETT DRIVE,JACKSON,41339,BREATHITT,(606) 666-2456,PHILLIP,LITTERAL,BREATHITT CO GERIATRIC CORP.,120,,120,,,,,,9/1/19,8/31/20,SB,SB,,,
100110,NORTHPOINT/LEXINGTON HEALTHCARE CENTER,1500 TRENT BOULEVARD,LEXINGTON,40515,FAYETTE,(859) 272-2273,BARRY,DEROSSETT,"NORTHPOINT SENIOR SERVICES KY I, LLC",150,,150,,,,,,12/1/18,11/30/19,EB,EB,,,
100750,NURSING FACILITY OF HARDIN MEMORIAL HOSPITAL,913 N. DIXIE AVE.,ELIZABETHTOWN,42701,HARDIN,(270) 706-1206,JOHN,GODFREY,"HARDIN COUNTY, KENTUCKY",15,,15,,,,,,12/1/18,11/30/19,NB,NB,,,
100523,OAKMONT MANOR,1100 GRANDVIEW DRIVE,FLATWOODS,41139,GREENUP,(606) 836-3187,TRAVIS,LEWIS,"OAKMONT OPERATIONS, LLC",85,,85,,,,,,3/1/19,2/29/20,EB,EB,,,
100330,OAKVIEW NURSING AND REHABILITATION CENTER,10456 US HIGHWAY 62,CALVERT CITY,42029,MARSHALL,(270) 898-6288,ANDREW,LONG,"LP CALVERT CITY, LLC",100,,100,,,,,,3/1/19,2/28/20,WB,WB,,,
100426,"OAKWOOD ICF/IID, UNIT 1",2441 SOUTH HIGHWAY 27,SOMERSET,42501,PULASKI,(606) 677-4068,CHRIS,WILLIAMSON,COMMONWEALTH OF KENTUCKY,60,,,,,,,60,3/1/19,2/29/20,SB,SB,,,
101089,"OAKWOOD ICF/IID, UNIT 2",2441 SOUTH HIGHWAY 27,SOMERSET,42501,PULASKI,(606) 677-4068,CHRIS,WILLIAMSON,COMMONWEALTH OF KENTUCKY,48,,,,,,,48,3/1/19,2/29/20,SB,SB,,,
101090,"OAKWOOD ICF/IID, UNIT 3",2441 SOUTH HIGHWAY 27,SOMERSET,42501,PULASKI,(606) 677-4068,CHRIS,WILLIAMSON,COMMONWEALTH OF KENTUCKY,24,,,,,,,24,3/1/19,2/29/20,SB,SB,,,
101091,"OAKWOOD ICF/IID, UNIT 4",2441 SOUTH HIGHWAY 27,SOMERSET,42501,PULASKI,(606) 677-4068,CHRIS,WILLIAMSON,COMMONWEALTH OF KENTUCKY,21,,,,,,,21,3/1/19,2/29/20,SB,SB,,,
100458,OUTWOOD ICF/IID,23524 DAWSON SPRINGS ROAD,DAWSON SPRINGS,42408,HOPKINS,(270) 797-3771,MELISSA,KNIGHT,COMMONWEALTH OF KENTUCKY CABINET FOR HEALTH SERVIC,80,,,,,,,80,1/1/19,12/31/19,WB,WB,,,
100093,OWENSBORO CENTER,1205 LEITCHFIELD RD.,OWENSBORO,42303,DAVIESS,(270) 684-0464,PAULA,THOMPSON,"LEISURE YEARS NURSING, LLC",145,,145,,,,39,,10/1/19,9/30/20,WB,WB,,,
100734,OWENSBORO HEALTH MUHLENBERG COMMUNITY HOSPITAL LTC,440 HOPKINSVILLE ST.,GREENVILLE,42345,MUHLENBERG,(270) 338-8431,KATHLEEN,MITCHELL ,"OH MUHLENBERG, LLC",45,,45,,,,,,9/1/19,8/31/20,WB,WB,,,
100508,OWENTON CENTER,905 HWY 127 NORTH,OWENTON,40359,OWEN,(502) 484-5721,ALAN,WADE,OWENTON MANOR NURSING LLC,100,,100,,,,,,1/1/19,12/31/19,NB,NB,,,
100526,"OWSLEY COUNTY HEALTH CARE CENTER, INC",HIGHWAY 11,BOONEVILLE,41314,OWSLEY,(606) 593-6302,WHITTNEY,YOUNTS,"OWSLEY CO HEALTH CARE CENTER, INC.",91,,91,,,,8,,7/1/19,6/30/20,SB,SB,,,
100757,PARK TERRACE HEALTH CAMPUS,9700 STONESTREET ROAD,LOUISVILLE,40272,JEFFERSON,(502) 995-6600,J. KEVIN,FOOTE,"TRILOGY REAL ESTATE KENTUCKY, LLC",88,,88,,,,,,9/1/19,8/31/20,NB,NB,,,
100310,PARKVIEW NURSING AND REHABILITATION CENTER,544 LONE OAK ROAD,PADUCAH,42003,MCCRACKEN,(270) 443-6543,LORI,MOBERLY,"CONSOLIDATED RESOURCES HEALTH CARE FUND I, L.P.",228,,228,,,,,,2/1/19,1/31/20,WB,WB,,,
100599,PARKVIEW NURSING AND REHABILITATION CENTER,200 NURSING HOME LANE,PIKEVILLE,41501,PIKE,(606) 639-4840,LANNA,ROBERTS,"PARKVIEW HEALTHCARE, LLC",120,,120,,,,,,4/1/19,3/31/20,SB,SB,,,
100990,PAUL E PATTON EASTERN KY VETERANS CENTER,200 VETERANS DRIVE,HAZARD,41701,PERRY,(606) 435-6196,NEIL,NAPIER,"COMMONWEALTH OF KY, DEPT OF VETERANS AFFAIRS",120,,120,,,,,,4/1/19,3/31/20,SB,SB,,,
100367,PIKEVILLE NURSING AND REHAB CENTER,260 SOUTH MAYO TRAIL,PIKEVILLE,41501,PIKE,(606) 437-7327,BRAD,BEVINS,"PIKEVILLE NURSING AND REHAB CENTER, LLC",106,,106,,,,,,10/1/19,9/30/20,SB,SB,,,
100638,PINE MEADOWS POST ACUTE,1608 HILL RISE DRIVE,LEXINGTON,40504,FAYETTE,(859) 254-2402,QUINN,ROBINSON,"PINE MEADOWSIDENCE OPCO, LLC",120,,120,,,,,,10/1/19,9/30/20,EB,EB,,,
100725,PINEVILLE COMMUNITY HOSPITAL,850 RIVERVIEW AVENUE,PINEVILLE,40977,BELL,(606) 337-3051,JEFF,EGBERT,"PINEVILLE COMMUNITY HOSPITAL ASSOCIATION, INC.",30,,30,,,,,,9/1/19,8/31/20,SB,SB,,,
100484,"PIONEER TRACE GROUP, LLC",115 PIONEER TRACE,FLEMINGSBURG,41041,FLEMING,(606) 845-2131,ROY,BABER,"PIONEER TRACE GROUP, LLC",92,,92,,,,,,10/1/19,9/30/20,EB,EB,,,
100126,PRESTONSBURG HEALTH CARE CENTER,147 NORTH HIGHLAND AVENUE,PRESTONSBURG,41653,FLOYD,(606) 886-2378,LYNN,WATTS,"LP PRESTONSBURG, LLC",56,,56,,,,,,1/1/19,12/31/19,SB,SB,,,
100049,PRINCETON HEALTH AND REHAB CENTER,1333 WEST MAIN ST.,PRINCETON,42445,CALDWELL,(270) 365-3541,LUANNE,COMPERRY,"PRINCETON OPCO, LLC",104,,104,,,,,,2/1/19,1/31/20,WB,WB,,,
100201,PROVIDENCE LOUISVILLE EAST POST ACUTE,4200 BROWNS LANE,LOUISVILLE,40220,JEFFERSON,(502) 459-8900,TREVOR,DAVIS,"LOUISVILLE EAST POST ACUTE, LLC",178,,178,,,,,,12/1/18,11/30/19,NB,NB,,,
101281,RADCLIFF VETERANS CENTER,100 VETERANS DRIVE,RADCLIFF,40160,HARDIN,(270) 352-6700,ED,THOMPSON,KY DEPARTMENT OF VETERANS AFFAIRS,120,,120,,,,,,2/1/19,1/31/20,NB,NB,,,
100423,REDBANKS,851 KIMSEY LANE,HENDERSON,42420,HENDERSON,(270) 826-6436,SHARI,NEWTON,HENDERSON COUNTY HEALTH CARE CORPORATION,222,,222,,,,,,4/1/19,3/31/20,WB,WB,,,
100440,REDBANKS COLONIAL TERRACE,142 ROGER POWELL RD,SEBREE,42455,WEBSTER,(270) 835-2533,BRIAN,WILLOUGHBY,"REDBANKS COLONIAL TERRACE, INC",87,,87,,,,,,11/1/19,10/31/20,WB,WB,,,
100559,REGENCY CENTER,1550 RAYDALE DR,LOUISVILLE,40219,JEFFERSON,(502) 968-6600,DIANE,GARRETT,"REGENCY NURSING, LLC",110,,110,,,,,,3/1/19,2/28/20,NB,NB,,,
100503,REGIS WOODS,4604 LOWE RD,LOUISVILLE,40220,JEFFERSON,(502) 451-1401,JOSEPH,GARRETT,"PINE TREE VILLA, LLC",186,,186,,,,,,11/1/18,Pending Renewal,NB,,,,
100818,RICHWOOD NURSING & REHAB,1012 RICHWOOD WAY,LA GRANGE,40031,OLDHAM,(502) 222-3186,MICHAEL,BOWLDEN,"RICHWOODIDENCE OPCO, LLC ",120,,120,,,,,,12/1/18,11/30/19,NB,NB,,,
100427,RIDGEWAY NURSING AND REHABILITATION FACILITY,406 WYOMING ROAD,OWINGSVILLE,40360,BATH,(606) 674-6613,LAURA,CARR,"RIDGEWAY NRF OPERATIONS, LLC",99,,99,,,,,,3/1/19,2/29/20,EB,EB,,,
100627,RIDGEWOOD TERRACE NURSING HOME,425 ISLAND FORD ROAD,MADISONVILLE,42431,HOPKINS,(270) 825-0166,LAUREN,DIXON,"RIDGEWOOD TERRRACE, LLC",110,,110,,,,,,9/1/19,8/31/20,WB,WB,,,
100306,RIVER HAVEN NURSING AND REHABILITATION CENTER,867 MCGUIRE AVE.,PADUCAH,42001,MCCRACKEN,(270) 442-6168,ANGEL,ALVAREZ,"PADUCAH OPERATING COMPANY, LLC",103,,103,,,,,,6/1/19,5/31/20,WB,WB,,,
100362,RIVER VALLEY NURSING HOME,305 TAYLOR STREET #402,BUTLER,41006,PENDLETON,(859) 472-2217,ANGELA,STIDAM,"BUTLER REST HOME, INC",60,,60,,,,,,6/1/19,5/31/20,EB,EB,,,
100686,RIVER'S BEND RETIREMENT COMMUNITY,300 BEECH ST.,KUTTAWA,42055,LYON,(270) 388-2868,STACEY,BULLOCK,"RBRC, INC.",40,,40,1,,,,,4/1/19,3/31/20,WB,WB,,,
100430,RIVERS EDGE NURSING AND REHABILITATION CENTER,6301 BASS ROAD,PROSPECT,40059,JEFFERSON,(502) 228-8359,TAMIKA,GIDRON,"THAMES HEALTHCARE GROUP, LLC",100,,100,,,,,,5/1/19,4/30/20,NB,NB,,,
100317,RIVERSIDE CARE AND REHABILITATION CENTER,190 EAST HWY. 136,CALHOUN,42327,MCLEAN,(270) 273-3783,MATTHEW JOSEPH,CLARK,"LP CALHOUN, LLC",79,,79,,,,,,9/1/19,8/31/20,WB,WB,,,
100504,RIVERVIEW HEALTH CARE CENTER,79 SPARROW LANE,PRESTONSBURG,41653,FLOYD,(606) 886-9178,MELISSA,ALLEN,"LP PRESTONSBURG RIVERVIEW, LLC",121,,121,,,,,,12/1/19,11/30/20,SB,SB,,,
100656,ROBERTSON COUNTY HEALTH CARE FACILITY,"1030 KENTONTOWN ROAD, P O BOX 170",MOUNT OLIVET,41064,ROBERTSON,(606) 724-5020,LINDA,MCCONNELL,ROBERTSON OPERATIONS LLC,60,,60,,,,,,11/1/19,10/31/20,EB,,,,
100375,ROCKCASTLE HEALTH AND REHABILITATION CENTER,371 WEST MAIN STREET,BRODHEAD,40409,ROCKCASTLE,(606) 758-8711,MICHELLE,MERCER,"LP BRODHEAD, LLC",104,,104,,,,,,3/1/19,2/28/20,SB,SB,,,
100374,ROCKCASTLE REGIONAL HOSPITAL AND RESPIRATORY CARE,145 NEWCOMB AVENUE,MOUNT VERNON,40456,ROCKCASTLE,(606) 256-2195,STEVE,ESTES,"ROCKCASTLE HOSPITAL AND RESPIRATORY CARE CTR, INC",143,,143,,,,,,1/1/19,12/31/19,SB,SB,,,
100115,ROSE MANOR HEALTH CARE,3057 NORTH CLEVELAND ROAD,LEXINGTON,40516,FAYETTE,(859) 299-4117,DEBORAH,ADDESSI,ALFRED MCGREGOR,34,,34,,,,,,3/1/19,2/29/20,EB,EB,,,
100269,ROSEDALE GREEN,4250 GLENN AVENUE,COVINGTON,41015,KENTON,(859) 431-2244,LONDA,KNOLLMAN,"KENTON HOUSING, INC",176,,176,,,,,,3/1/19,2/29/20,EB,EB,,,
100294,SALEM SPRINGLAKE HEALTH AND REHABILITATION CENTER,509 NORTH HAYDEN AVE.,SALEM,42078,LIVINGSTON,(270) 988-4572,SHAYNE,HANDY,"ORION SALEM, LLC",75,,75,,,,,,12/1/18,11/30/19,WB,WB,,,
100519,SALYERSVILLE NURSING AND REHABILITATION CENTER,662 PARKWAY DRIVE,SALYERSVILLE,41465,MAGOFFIN,(606) 349-6181,JOSHUA,CALHOUN,"SALYERSVILLE HEALTH OPERATING COMPANY, LLC",142,,142,,,,1,,12/1/18,11/30/19,SB,SB,,,
100505,SANSBURY CARE CENTER,2625 BARDSTOWN ROAD,SAINT CATHARINE,40061,WASHINGTON,(859)336-3974,MEGAN,FINNIE,"SANSBURY CARE CENTER, INC.",48,,48,,,,11,,8/1/19,7/31/20,EB,EB,,,
100544,SAYRE CHRISTIAN VILLAGE NURSING HOME,3775 BELLEAU WOOD DRIVE,LEXINGTON,40517,FAYETTE,(859) 271-9000,ANN,REED,"SAYRE CHRISTIAN VILLAGE NURSING HOME, INC.",119,,119,11,,,,,3/1/19,2/29/20,EB,EB,,,
100256,SENECA PLACE,3526 DUTCHMANS LANE,LOUISVILLE,40205,JEFFERSON,(502) 452-6331,TAYLOR,SHAW,"SENECA PLACE, LLC",107,,107,,,,,,8/1/19,7/31/20,NB,NB,,,
100396,SHADY LAWN NURSING AND REHABILITATION CENTER,2582 CERULEAN ROAD,CADIZ,42211,TRIGG,(270) 522-3236,CANDY,DENLEY,"SHADY LAWN OPCO, LLC",50,,50,,,,,,3/1/19,2/29/20,WB,WB,,,
100415,SHEMWELL NURSING HOME,805 PRINCETON STREET,PROVIDENCE,42450,WEBSTER,(270) 667-5472,SHELLEY,LANEVE,"SHEMWELL HEALTHCARE, LLC",0,,,20,2,,,,10/1/18,Pending Renewal,WB,WB,,,
100347,SIGNATURE HEALTHCARE AT COLONIAL REHAB AND WELLNESS,708 BARTLEY AVENUE,BARDSTOWN,40004,NELSON,(502) 348-9260,BRYNA,PRICE,"LP BARDSTOWN, LLC",65,,65,,,,,,7/1/19,6/30/20,NB,NB,,,
100431,SIGNATURE HEALTHCARE AT HERITAGE HALL REHAB AND WELL,331 SOUTH MAIN STREET,LAWRENCEBURG,40342,ANDERSON,(502) 839-7246,LAUREN,SWORD,"LP LAWRENCEBURG, LLC",94,,94,,,,,,5/1/19,4/30/20,EB,EB,,,
100090,SIGNATURE HEALTHCARE AT HILLCREST,3740 OLD HARTFORD RD,OWENSBORO,42303,DAVIESS,(270) 684-7259,BILL,CONLEY,"LP OWENSBORO II, LLC",156,,156,,,,,,3/1/19,2/28/20,WB,WB,,,
100602,SIGNATURE HEALTHCARE AT JACKSON MANOR REHA AND WELLN,96 HIGHWAY  3444,ANNVILLE,40402,JACKSON,(606) 364-5197,KEVIN,BRYANT,"LP ANNVILLE, LLC",51,,51,,,,,,3/1/19,2/28/20,SB,SB,,,
100533,SIGNATURE HEALTHCARE AT JEFFERSON MANOR REHAB AND WE,1801 LYNN WAY,LOUISVILLE,40222,JEFFERSON,(502) 426-4513,AMY,BROWN,"LP LOUISVILLE LYNN WAY, LLC",100,,100,,,,,,12/1/18,11/30/19,NB,NB,,,
100644,SIGNATURE HEALTHCARE AT JEFFERSON PLACE REHAB AND WE,1705 HERR LANE,LOUISVILLE,40222,JEFFERSON,(502) 426-5600,SCOTT,STEWART,"LP LOUISVILLE HERR LANE, LLC",95,,95,,,,,,11/1/18,Pending Renewal,NB,NB,,,
100570,SIGNATURE HEALTHCARE AT NORTH HARDIN REHAB AND WELLN,599 ROGERSVILLE RD.,RADCLIFF,40160,HARDIN,(270) 351-2999,KAYCEE,LOUCKA,"LP RADCLIFF, LLC",148,,148,,,,16,,6/1/19,5/31/20,NB,NB,,,
100453,SIGNATURE HEALTHCARE AT ROCKFORD REHAB AND WELLNESS,4700 QUINN DR.,LOUISVILLE,40216,JEFFERSON,(502) 448-5850,JASMINE,SANDHU,"LP LOUISVILLE QUINN DRIVE, LLC",110,,110,,,,,,12/1/18,11/30/19,NB,NB,,,
101233,SIGNATURE HEALTHCARE AT STS MARY AND ELIZABETH HOSPI,"1850 BLUEGRASS AVENUE, UNIT 3C",LOUISVILLE,40215-1161,JEFFERSON,(502) 361-6000,KRISTI,NOAH,"LP LOUISVILLE HOSPITAL SOUTH, LLC",20,,20,,,,,,1/1/19,12/31/19,NB,NB,,,
100517,SIGNATURE HEALTHCARE AT SUMMERFIELD REHAB AND WELLNE,1877 FARNSLEY RD.,LOUISVILLE,40216,JEFFERSON,(502) 448-8622,MICHELLE,MERCER,"LP LOUISVILLE FARNSLEY ROAD, LLC",165,,165,,,,,,11/1/18,Pending Renewal,NB,NB,,,
100003,SIGNATURE HEALTHCARE AT SUMMIT MANOR REHAB AND WELLN,400 BOMAR HEIGHTS,COLUMBIA,42728,ADAIR,(270) 384-2153,LAWRENCE,BROWN,"LP COLUMBIA KY, LLC",104,,104,,,,,,8/1/19,7/31/20,SB,SB,,,
100630,SIGNATURE HEALTHCARE AT TANBARK REHAB AND WELLNESS C,1121 TANBARK ROAD,LEXINGTON,40515,FAYETTE,(859) 273-7377,NIKKI,SCHILLING,LP LEXINGTON TANBARK ROAD LLC,34,,34,,,,62,,4/1/19,3/31/20,EB,EB,,,
100410,SIGNATURE HEALTHCARE OF BOWLING GREEN,550 HIGH ST.,BOWLING GREEN,42101,WARREN,(270) 843-3296,FRED ,ROWE,"LP BOWLING GREEN, LLC",176,,176,,,,,,7/1/19,6/30/20,WB,WB,,,
100494,SIGNATURE HEALTHCARE OF CARROLLTON REHAB AND WELLNES,1206 ELEVENTH STREET,CARROLLTON,41045,CARROLL,(502) 732-6683,PRESTON,HARNESS,"LP CARROLLTON, LLC",78,,78,,,,,,6/1/19,5/31/20,NB,NB,,,
100428,SIGNATURE HEALTHCARE OF EAST LOUISVILLE,2529 SIX MILE LANE,LOUISVILLE,40220,JEFFERSON,(502) 491-5560,TRINA,MAUEL-JAGOE,"LP LOUISVILLE EAST, LLC",128,,128,,,,,,6/1/19,5/31/20,NB,NB,,,
100162,SIGNATURE HEALTHCARE OF ELIZABETHTOWN,1117 WOODLAND DRIVE,ELIZABETHTOWN,42701,HARDIN,(270) 769-2363,ISRAEL,RAY,"LP E-TOWN, LLC",112,,112,,,,,,12/1/18,11/30/19,NB,NB,,,
100381,SIGNATURE HEALTHCARE OF GEORGETOWN,102 POCAHONTAS TRAIL ,GEORGETOWN,40324,SCOTT,(502) 863-3696,HOPE,BRAINARD,"LP GEORGETOWN, LLC",65,,65,,,,,,12/1/19,11/30/20,EB,EB,,,
100014,SIGNATURE HEALTHCARE OF GLASGOW REHAB AND WELLNESS C,220 WESTWOOD ST.,GLASGOW,42141,BARREN,(270) 651-3499,DILLION,CARVER,"LP GLASGOW, LLC",68,,68,,,,,,6/1/19,5/31/20,WB,WB,,,
100662,SIGNATURE HEALTHCARE OF HART COUNTY REHAB AND WELLNE,1505 SOUTH DIXIE STREET,HORSE CAVE,42749,HART,(270) 786-2200,DEVIN,DAME,"LP HORSECAVE, LLC",104,,104,,,,,,8/1/19,7/31/20,NB,NB,,,
100354,SIGNATURE HEALTHCARE OF HARTFORD REHAB AND WELLNESS,114 MCMURTRY AVE.,HARTFORD,42347,OHIO,(270) 298-7437,JUSTIN,HENDRIX,"LP HARTFORD, LLC",110,,110,,,,,,10/1/19,9/30/20,WB,WB,,,
100635,SIGNATURE HEALTHCARE OF MCCREARY COUNTY REHAB AND WE,58 CAL HILL ROAD,PINE KNOT,42635,MCCREARY,(606) 354-3155,SHARON,BAIRD,"LP PINEKNOT, LLC",60,,60,,,,,,3/1/19,2/28/20,SB,SB,,,
100337,SIGNATURE HEALTHCARE OF MONROE COUNTY REHAB AND WELL,706 NORTH MAGNOLIA STREET,TOMPKINSVILLE,42167,MONROE,(270) 487-6135,RITA,CRABTREE,"LP TOMPKINSVILLE, LLC",104,,104,,,,,,3/1/19,2/28/20,SB,SB,,,
100452,SIGNATURE HEALTHCARE OF SOUTH LOUISVILLE,1120 CRISTLAND ROAD,LOUISVILLE,40214,JEFFERSON,(502) 367-0104,BRIAN,MUELLER,"LP LOUISVILLE SOUTH, LLC",100,,100,,,,,,6/1/19,5/31/20,NB,NB,,,
100603,SIGNATURE HEALTHCARE OF SPENCER COUNTY,625 TAYLORSVILLE RD,TAYLORSVILLE,40071,SPENCER,(502) 477-8838,NATHAN,WILSON,"LP TAYLORSVILLE, LLC",120,,120,,,,,,3/1/19,2/28/20,NB,NB,,,
100506,SIGNATURE HEALTHCARE OF TRIMBLE COUNTY,50 SHEPHERD LANE,BEDFORD,40006,TRIMBLE,(502) 255-3244,BRIAN,WILLOUGHBY,"LP BEDFORD, LLC",60,,60,,,,,,9/1/19,8/31/20,NB,NB,,,
100524,SOMERSET NURSING AND REHABILITATION FACILITY,106 GOVER STREET,SOMERSET,42502,PULASKI,(606) 679-8331,JENNIFER,DAVIS,"SOMERSET OPERATIONS, LLC",123,,123,,,,,,11/1/19,10/31/20,SB,SB,,,
100499,SOMERWOODS NURSING AND REHABILITATION CENTER,555 BOURNE AVENUE,SOMERSET,42501,PULASKI,(606) 679-7421,BRIAN,JAGGERS,"HANGING ROCK, LTC, LLC",166,,166,,,,,,9/1/19,8/31/20,SB,SB,,,
100156,SOUTH SHORE NURSING & REHABILITATION,JAMES E. HANNAH DRIVE,SOUTH SHORE,41175,GREENUP,(606) 932-3127,TAMMIE,TUTTLE,"SOUTH SHORE NURSING & REHABILITATION, LLC",60,,60,,,,,,7/1/19,6/30/20,EB,EB,,,
100756,SPRING CREEK HEALTH CARE,1401 SOUTH 16TH STREET,MURRAY,42071,CALLOWAY,(270) 752-2900,VICKI,BRADLEY-STEEGE,MURRAY CALLOWAY CO PUBLIC HOSPITAL CORP.,226,,226,,,,,,7/1/19,6/30/20,WB,WB,,,
100149,SPRING VIEW HEALTH AND REHAB CENTER,718 GOODWIN LANE,LEITCHFIELD,42754,GRAYSON,(270) 259-4036,MICHAEL,PEEL,"SPRING VIEW OPCO, LLC",71,,71,,,,,,1/1/19,12/31/19,WB,WB,,,
100412,SPRINGFIELD NURSING AND REHABILITATION CENTER,420 EAST GRUNDY AVENUE,SPRINGFIELD,40069,WASHINGTON,(859) 336-7771,MARK,HOLBROOK,"SPRINGFIELD HEALTH CENTER, LLC",70,,70,,,,,,4/1/19,3/31/20,EB,EB,,,
100513,SPRINGHURST HEALTH AND REHAB,3001 N. HURSTBOURNE PKWY.,LOUISVILLE,40241,JEFFERSON,(502) 426-5531,DENISE,BURGESS,"BAPTIST HOMES, INC.",90,,90,,,,,,12/1/18,11/30/19,NB,NB,,,
100704,ST CLAIRE MEDICAL CENTER,222 MEDICAL CIRCLE,MOREHEAD,40351,ROWAN,(606) 783-6650,KEVIN,TRENT,"ST. CLAIRE MEDICAL CENTER, INC.",10,,10,,,,,,1/1/19,12/31/19,EB,EB,,,
100760,ST ELIZABETH FLORENCE SNF,4900 HOUSTON ROAD,FLORENCE,41042,BOONE,(859) 212-4302,AMY,THOMPSON,"ST. ELIZABETH MEDICAL CENTER, INC.",16,,16,,,,,,11/1/19,10/31/20,EB,EB,,,
100759,ST ELIZABETH FT THOMAS SNF,85 NORTH GRAND AVENUE,FORT THOMAS,41075,CAMPBELL,(859) 572-3530,AMY,THOMPSON,"ST. ELIZABETH MEDICAL CENTER, INC.",26,,26,,,,,,11/1/19,10/31/20,EB,EB,,,
100253,ST MATTHEWS CARE CENTER,227 BROWNS LANE,LOUISVILLE,40207,JEFFERSON,(502) 893-2595,JEREMy,BISCHOFF,"ST MATTHEWS LEASING, LLC",125,,125,,,,,,1/1/19,12/31/19,NB,NB,,,
100290,STANFORD CARE AND REHABILITATION,105 HARMON HEIGHTS,STANFORD,40484,LINCOLN,(606) 365-2141,DAWN,COCHRAN,"STANFORD LEASING, LLC",128,,128,,,,,,2/1/19,1/31/20,SB,SB,,,
100445,STANTON NURSING AND REHABILITATION CENTER,31 DERICKSON LANE,STANTON,40380,POWELL,(606) 663-2846,TERRY,WILLIS,"STANTON HEALTH CENTER, LLC",81,,81,,,,1,,7/1/19,6/30/20,SB,SB,,,
100309,STONECREEK HEALTH AND REHABILITATION,4747 ALBEN BARKLEY DRIVE,PADUCAH,42001,MCCRACKEN,(270) 444-9661,ANDREW,LONG,"PADUCAH CENTER FOR  HEALTH AND REHABILITATION,  LLC",86,,86,,,,,,7/1/19,6/30/20,WB,WB,,,
100277,SUNRISE MANOR NURSING HOME,717 NORTH LINCOLN BLVD,HODGENVILLE,42748,LARUE,(270) 358-3103,DONOVAN,DAME,"LP HODGENVILLE, LLC",137,,137,,,,,,1/1/19,12/31/19,NB,NB,,,
100312,SUPERIOR CARE HOME,100 MARSHALL COURT,PADUCAH,42001,MCCRACKEN,(270) 442-6884,JENNIFER,MYERS,"SUPERIOR CARE HOMES, INC.",108,,108,,,,,,12/1/18,11/30/19,WB,WB,,,
100197,SYCAMORE HEIGHTS HEALTH AND REHABILITATION,2141 SYCAMORE AVENUE,LOUISVILLE,40206,JEFFERSON,(502) 895-5417,STEFANIE,JENKINS,"CV LOUISVILLE OPCO I, LLC",96,,96,,,,,,11/1/19,10/31/20,NB,NB,,,
100761,T J SAMSON COMMUNITY HOSPITAL,1301 N RACE ST,GLASGOW,42141,BARREN,(270) 651-4444,JIM,REID,"T. J. SAMSON COMMUNITY HOSPITAL, INC.",16,,16,,,,,,1/1/19,12/31/19,WB,WB,,,
100420,TAYLOR MANOR NURSING HOME,300 BERRY AVENUE,VERSAILLES,40383,WOODFORD,(859) 873-4201,MARY,FAUSTINA ZUGELDER,"TAYLOR MANOR, INC.",,,,40,18,,24,,1/1/19,12/31/19,EB,EB,,,
100946,TELFORD TERRACE,1025 ROBERT L TELFORD DRIVE,RICHMOND,40475,MADISON,(859) 626-5200,GILBERT,SHEW,"MCCREADY MANOR, INC.",26,,25,1,2,,14,,10/1/19,9/30/20,SB,SB,,,
100203,THE EPISCOPAL CHURCH HOME,7504 WESTPORT ROAD,LOUISVILLE,40222,JEFFERSON,(502) 736-7800,BEVERLY,EDWARDS,THE EPISCOPAL CHURCH HOME INC,139,,93,46,,,127,,10/1/19,9/30/20,NB,NB,,,
100551,THE FORUM AT BROOKSIDE,200 BROOKSIDE DRIVE,LOUISVILLE,40243,JEFFERSON,(606) 677-0166,SARA,SHAW,"FIVE STAR BROOKSIDE, LLC",40,,40,18,2,,24,,5/1/19,4/30/20,NB,NB,,,
100393,THE GRANDVIEW NURSING AND REHABILITATION FACILITY,640 WATER TOWER BYPASS,CAMPBELLSVILLE,42719,TAYLOR,(270) 465-4321,DEBORAH,GIBSON,"CNRF OPERATIONS, LLC",81,,81,,,,,,5/1/19,4/30/20,SB,SB,,,
100771,THE HERITAGE,192 BACON CREEK ROAD,CORBIN,40702,WHITLEY,(606) 526-1900,SAM,HUTCHINSON,"WHITLEY OPERATIONS, LLC",85,,85,,,,,,4/1/19,3/31/20,SB,SB,,,
101207,THE HOMEPLACE AT MIDWAY,101 SEXTON WAY,MIDWAY,40347,WOODFORD,(859) 846-4663,TONYA,COX,"THE HOME PLACE AT MIDWAY, INC.",23,,23,1,,,12,,11/1/19,10/31/20,EB,EB,,,
100438,THE JORDAN CENTER,270 E CLAYTON LANE,LOUISA,41230,LAWRENCE,(606) 638-4586,DAVID,MCKENZIE,"MCKENZIE HEALTH CARE, LLC",104,,104,,,,6,,3/1/19,2/28/20,EB,EB,,,
100991,THE NEIGHBORHOOD NURSING FACILITY,100 NEIGHBORLY WAY,SOMERSET,42503,PULASKI,(606) 677-0166,SHARON,REYNOLDS,"MORNINGSIDE OF KENTUCKY, LP",0,,,12,,,,,4/1/19,3/31/20,SB,SB,,,
100266,THE PAVILION AT KENTON,401 EAST 20TH STREET,COVINGTON,41014,KENTON,(859) 283-6600,DANIEL,ROMANELLO,"PAVILION AT KENTON FOR NURSING AND REHABILITATION, LLC",82,,82,,,,,,6/1/19,5/31/20,EB,EB,,,
100055,THE SEASONS AT ALEXANDRIA,7341 E ALEXANDRIA PIKE,NEWPORT,41071,CAMPBELL,(859) 581-1938,ERICH,HAYMAN,"BAPTIST CONVALESCENT CENTER, INC.",167,,167,,,,66,,2/1/19,1/31/20,EB,EB,,,
100645,THE SPRINGS AT STONY BROOK,2200 STONY BROOK DR,LOUISVILLE,40220,JEFFERSON,(502) 495-6240,CHRIS,PETERSON,"HURSTBOURNE HEALTHCARE, LLC",132,,132,,,,41,,11/1/19,10/31/20,NB,NB,,,
100737,THE TERRACE NURSING AND REHABILITATION CENTER,1043 BROOKLYN BOULEVARD,BEREA,40403,MADISON,(859) 228-0551,AUSTIN,GIBSON,"BEREA OPERATIONS, LLC",102,,102,,,,,,2/1/19,1/31/20,SB,SB,,,
100735,THE TRANSITIONAL CARE CENTER OF OWENSBORO,1201 PLEASANT VALLEY ROAD,OWENSBORO,42303,DAVIESS,(270) 688-2000,JOY,BURDEN,"OWENSBORO HEALTH, INC.",30,,30,,,,,,10/1/19,9/30/20,WB,WB,,,
100326,"THE VILLAGE OF LEBANON II, LLC",105 VILLAGE WAY,LEBANON,40033,MARION,(270) 692-9000,FARRAH,MATTINGLY,"THE VILLAGE OF LEBANON, LLC",38,,,38,,,10,,8/1/19,7/31/20,SB,SB,,,
100646,"THE VILLAGE OF LEBANON II, LLC",105 VILLAGE WAY,LEBANON,40033,MARION,(270) 692-9000,FARRAH,MATTINGLY,"THE VILLAGE OF LEBANON II, LLC",16,,16,,,,,,8/1/19,7/31/20,SB,SB,,,
101215,THE WILLOWS AT CITATION,1376 SILVER SPRINGS DRIVE,LEXINGTON,40511,FAYETTE,(859) 277-0320,BRITTANY,FAUCHER,"TRILOGY HEALTHCARE OF FAYETTE III, LLC",54,,54,,,,34,,6/1/19,5/31/20,EB,EB,,,
101286,THE WILLOWS AT FRITZ FARM,2710 MAN O WAR BLVD,LEXINGTON ,40515,FAYETTE,859-273-0088,ELIZABETH,BLAIR,"TRILOGY HEALTHCARE OF FAYETTE II, LLC",54,,54,,,,31,,3/1/19,2/29/20,EB,EB,,,
101136,THE WILLOWS AT HAMBURG,2531 OLD ROSEBUD ROAD,LEXINGTON,40509,FAYETTE,(859) 543-0337,SAMUEL,FRAZIER,"TRILOGY HEALTHCARE OF FAYETTE 1, LLC",64,,54,10,,,39,,12/1/19,11/30/20,EB,EB,,,
100762,THE WILLOWS AT HARRODSBURG,180 LUCKY MAN WAY,HARRODSBURG,40330,MERCER,(859) 734-2953,RACHEL,DADISMAN,"TRILOGY HEALTHCARE OF MERCER, LLC",43,,34,9,,,36,,3/1/19,2/29/20,EB,EB,,,
100651,THOMSON-HOOD VETERANS CENTER,100 VETERANS DRIVE,WILMORE,40390,JESSAMINE,(859) 858-2814,JONI,GOSSER,COMMONWEALTH OF KENTUCKY,285,,285,,,,,,9/1/19,8/31/20,EB,,,,
100436,TRADEWATER POINTE,100 W. RAMSEY,DAWSON SPRINGS,42408,HOPKINS,(270) 797-8132,MARGARET,CURTIS,"TRADEWATER POINTE, LLC",60,,60,,,,,,11/1/19,10/31/20,WB,WB,,,
100548,TREYTON OAK TOWERS,211 WEST OAK STREET,LOUISVILLE,40203,JEFFERSON,(502) 589-3211,MIKE,WIDEMAN,THIRD AND OAK CORPORATION,60,,60,,,,40,,1/1/19,12/31/19,NB,NB,,,
100767,TRI-CITIES NURSING AND REHABILITATION CENTER,19101 US HIGHWAY 119 NORTH,CUMBERLAND,40823,HARLAN,(606) 589-5421,JEFF,WILDER,"HANGING ROCK, LTC, LLC",85,,85,,,,,,4/1/19,3/31/20,SB,SB,,,
100957,TRINITY STATION RETIREMENT COMMUNITY,2121 ARGILLITE ROAD,FLATWOODS,41139,GREENUP,(606) 833-1111,JAMES,BAILEY,"ADVANCED LIVING, INC.",0,,,17,,,30,,5/1/19,4/30/20,EB,EB,,,
100714,TUG VALLEY ARH SKILLED NURSING FACILITY,260 HOSPITAL DRIVE,SOUTH WILLIAMSON,41503,PIKE,(606) 237-1725,SONYA,WASSERMAN,"APPALACHIAN REGIONAL HEALTHCARE, INC.",35,,35,,,,,,12/1/19,11/30/20,SB,SB,,,
100094,TWIN RIVERS NURSING AND REHABILITATION CENTER,2420 W. 3RD ST.,OWENSBORO,42301,DAVIESS,(270) 685-3141,ERIC,ROSS,"TWIN RIVERS OPERATING COMPANY, LLC",132,,132,,,,,,8/1/19,7/31/20,WB,WB,,,
101018,VALHALLA POST ACUTE,300 SHELBY STATION DRIVE,LOUISVILLE,40245,JEFFERSON,(502) 254-0009,DONNA,CANTWELL,"LAKE FOREST POST ACUTE, LLC",130,,130,,,,,,10/1/18,Pending Renewal,NB,NB,,,
100511,VANCEBURG REHABILITATION AND CARE,58 EASTHAM STREET,VANCEBURG,41179,LEWIS,(606) 796-3046,JOSEPH,DONCHATZ,"VANCEBURG LEASING, LLC",94,,94,,,,,,1/1/19,12/31/19,EB,EB,,,
100429,VILLAGE CARE CENTER,2990 RIGGS AVENUE,ERLANGER,41018,KENTON,(859) 727-9330,KRISTI,HILBERT,"BAPTIST CONVALESCENT CENTER, INC.",100,,100,,,,,,9/1/19,8/31/20,EB,EB,,,
100925,VILLASPRING OF ERLANGER,630 VIOX DRIVE,ERLANGER,41018,KENTON,(859) 727-6700,HEATHER,BAILEY,"VILLASPRING HEALTH CARE CENTER, LLC",140,,140,,,,,,8/1/19,7/31/20,EB,EB,,,
100648,WELLINGTON PARC OF OWENSBORO,2885 NEW HARTFORD RD,OWENSBORO,42303,DAVIESS,(270) 685-2374,PHILIP,TRAVIS,"WELLINGTON PARC HEALTH SYSTEMS, INC.",44,,20,,,60,,,7/1/19,6/30/20,WB,WB,,,
100491,WENDELL FOSTER'S CAMPUS FOR DEVELOPMENTAL DISABILI,815 TRIPLETT STREET,OWENSBORO,42302,DAVIESS,(270) 683-4517,SARAH,POOLE,WENDELL FOSTER'S CAMPUS FOR DEVELOPMENTAL DISABILITIES,63,,,,,,,63,2/1/19,1/31/20,WB,WB,,,
100230,WESLEY MANOR,5012 EAST MANSLICK RD,LOUISVILLE,40219,JEFFERSON,(502) 969-3277,JERRY,HOGANSON,"WESLEY MANOR RETIREMENT COMMUNITY, INC.",68,,68,,,,39,,4/1/19,3/31/20,NB,NB,,,
100889,WESLEY VILLAGE,1125 LEXINGTON ROAD,WILMORE,40390,JESSAMINE,(859) 858-3865,GLENDA,CREECH,"UNITED METHODIST RETIREMENT COMMUNITY, INC.",0,,,36,2,,28,,12/1/19,11/30/20,EB,EB,,,
100340,WEST LIBERTY NURSING AND REHABILITATION,774 LIBERTY ROAD,WEST LIBERTY ,41472,MORGAN,(606) 743-3846,KIMBERLY,ROYCE,"WEST LIBERTY NURSING AND REHABILITATION, LLC",48,,48,,,,2,,6/1/19,5/31/20,SB,SB,,,
100490,WESTERN STATE NURSING FACILITY,2400 RUSSELLVILLE ROAD,HOPKINSVILLE,42240,CHRISTIAN,(270) 889-6025,ROGER,WESTFALL,COMMONWEALTH OF KENTUCKY,144,,144,,,,,,10/1/19,9/30/20,WB,WB,,,
100242,WESTMINSTER TERRACE,2116 BUECHEL BANK ROAD,LOUISVILLE,40218,JEFFERSON,(502) 499-9383,BRIDGETTE,TODD,"PRESBYTERIAN HOMES AND SERVICES OF KY, INC.",112,,112,,,,,,11/1/19,10/31/20,NB,NB,,,
101144,WESTPORT PLACE HEALTH CAMPUS,4247 WESTPORT ROAD,LOUISVILLE,40207,JEFFERSON,(502) 893-3033,DANA,BOBLITT,"TRILOGY HEALTHCARE OF LOUISVILLE EAST, LLC",62,,62,,,,26,,7/1/19,6/30/20,NB,NB,,,
100488,WILLIAMSBURG HEALTH AND REHABILITATION CENTER,287 N ELEVENTH STREET,WILLIAMSBURG,40769,WHITLEY,(606) 549-4321,LAURA,CREEKMORE,WILLIAMSBURG NURSING HOME,125,,125,,,,,,3/1/19,2/29/20,SB,SB,,,
100696,WINDSONG ICF/IID,9001 PARK WOODS DRIVE,CRESTWOOD,40014,OLDHAM,(502) 241-1551,KELLY,MANGUM,COMMONWEALTH OF KENTUCKY,8,,,,,,,8,5/1/19,4/30/20,NB,NB,,,
100468,WINDSOR CARE CENTER,125 STERLING WAY,MOUNT STERLING,40353,MONTGOMERY,(859) 498-3343,RUTH,HACKWORTH,"REGENCY CARE OF MOUNT STERLING, LLC",144,,144,,,,,,12/1/19,11/30/20,EB,EB,,,
101254,WINDSOR GARDENS CCRC,103 ISAAC GREER COURT,BARDSTOWN,40004,NELSON,(502) 349-6214,KERI,LEGG,"WINDSOR GARDENS, LLC",0,,,,,,34,,4/1/19,3/31/20,NB,NB,,,
100636,WOLFE COUNTY HEALTH AND REHABILITATION CENTER,850 HWY 191,CAMPTON,41301,WOLFE,(606) 668-3216,AMELIA,PRATER,"WOLFE COUNTY HEALTH CARE CENTER, INC.",100,,100,,,,,,4/1/19,3/31/20,SB,SB,,,
100905,WOODCREST NURSING AND REHABILITATION CENTER,3876 TURKEYFOOT ROAD,ELSMERE,41018,KENTON,(859) 342-8775,JILLIAN,ZWICK,"WOODCREST OPERATING COMPANY, LLC",127,,127,,,,,,5/1/19,4/30/20,EB,,,,
100665,WOODLAND OAKS,1820 OAKVIEW ROAD,ASHLAND,41101,BOYD,(606) 325-5200,ANTHONY,MOLLICA,"WOODLAND OAKS OPERATIONS, LLC",110,,110,,,,,,2/1/19,1/31/20,EB,,,,
100449,WURTLAND NURSING & REHABILITATION,100 WURTLAND AVENUE,WURTLAND,41144,GREENUP,(606) 836-0931,SARAH,WILLIS,"WURTLAND NURSING & REHABILITATION, LLC",126,,126,,,,,,3/1/19,2/29/20,EB,,,,